STARLINK-4046           
1 52842U 22062N   26071.12738096 -.00000048  00000+0  15100-4 0  9998
2 52842  53.2184  23.0997 0001451  91.2766 268.8393 15.08839630206154
STARLINK-4188           
1 52843U 22062P   26071.30403725  .00000353  00000+0  40291-4 0  9994
2 52843  53.2183  22.3838 0001867  94.3869 265.7336 15.08836058206186
STARLINK-4208           
1 52844U 22062Q   26071.25252795 -.00002874  00000+0 -16257-3 0  9994
2 52844  53.2193  22.6125 0001519  86.6896 273.4270 15.08834315206174
STARLINK-4168           
1 52845U 22062R   26071.24148464 -.00000867  00000+0 -36392-4 0  9994
2 52845  53.2201  22.7305 0001549 104.0709 256.0455 15.08835282206173
STARLINK-4212           
1 52846U 22062S   26071.24242750  .00001075  00000+0  85589-4 0  9990
2 52846  53.2191  22.6694 0001398  90.7699 269.3454 15.08841304206171
STARLINK-4206           
1 52847U 22062T   26071.29667009 -.00001609  00000+0 -83013-4 0  9999
2 52847  53.2185  22.4220 0001376  95.0736 265.0413 15.08831655206181
STARLINK-4202           
1 52848U 22062U   26071.18258912 -.00000229  00000+0  37082-5 0  9999
2 52848  53.2187  22.9272 0001165  86.0049 274.1076 15.08843368206167
STARLINK-4197           
1 52849U 22062V   26071.15775285  .00001368  00000+0  10401-3 0  9992
2 52849  53.2189  13.0399 0001365  79.9117 280.2029 15.08843084206295
STARLINK-4187           
1 52850U 22062W   26071.13574898  .00000084  00000+0  23392-4 0  9997
2 52850  53.2197  23.4985 0001331  87.0550 273.0595 15.08841052206152
STARLINK-3809           
1 52851U 22062X   26071.15406973  .00002468  00000+0  17314-3 0  9992
2 52851  53.2195  13.0567 0001312  89.7076 270.4066 15.08827654206294
STARLINK-4184           
1 52852U 22062Y   26071.22767236  .00000115  00000+0  25337-4 0  9995
2 52852  53.2200  12.7268 0001527  85.5953 274.5213 15.08840706206306
STARLINK-4189           
1 52853U 22062Z   26071.27645998  .00001295  00000+0  99411-4 0  9995
2 52853  53.2184  12.4812 0001332  85.2575 274.8569 15.08846201206315
STARLINK-4204           
1 52854U 22062AA  26071.21663681  .00000725  00000+0  63634-4 0  9994
2 52854  53.2191  12.7748 0001341  91.1242 268.9904 15.08836710206302
STARLINK-4209           
1 52855U 22062AB  26071.13935644  .00000300  00000+0  36920-4 0  9994
2 52855  53.2202  13.1296 0001625  99.5979 260.5197 15.08832491206295
STARLINK-4201           
1 52856U 22062AC  26071.21391695  .00000937  00000+0  76946-4 0  9994
2 52856  53.2183  12.8344 0001286  90.1932 269.9208 15.08837390206304
STARLINK-4199           
1 52857U 22062AD  26071.13199742 -.00000978  00000+0 -43357-4 0  9992
2 52857  53.2202  13.1595 0001563  97.8852 262.2318 15.08831630206299
