[{"OBJECT_NAME":"STARLINK-4046","OBJECT_ID":"2022-062N","EPOCH":"2026-03-12T03:03:25.714944","MEAN_MOTION":15.0883963,"ECCENTRICITY":0.00014518,"INCLINATION":53.2184,"RA_OF_ASC_NODE":23.0997,"ARG_OF_PERICENTER":91.2766,"MEAN_ANOMALY":268.8393,"EPHEMERIS_TYPE":0,"CLASSIFICATION_TYPE":"U","NORAD_CAT_ID":52842,"ELEMENT_SET_NO":999,"REV_AT_EPOCH":20615,"BSTAR":1.5100205e-5,"MEAN_MOTION_DOT":-4.8e-7,"MEAN_MOTION_DDOT":0},{"OBJECT_NAME":"STARLINK-4188","OBJECT_ID":"2022-062P","EPOCH":"2026-03-12T07:17:48.818400","MEAN_MOTION":15.08836058,"ECCENTRICITY":0.00018673,"INCLINATION":53.2183,"RA_OF_ASC_NODE":22.3838,"ARG_OF_PERICENTER":94.3869,"MEAN_ANOMALY":265.7336,"EPHEMERIS_TYPE":0,"CLASSIFICATION_TYPE":"U","NORAD_CAT_ID":52843,"ELEMENT_SET_NO":999,"REV_AT_EPOCH":20618,"BSTAR":4.0290641e-5,"MEAN_MOTION_DOT":3.53e-6,"MEAN_MOTION_DDOT":0},{"OBJECT_NAME":"STARLINK-4208","OBJECT_ID":"2022-062Q","EPOCH":"2026-03-12T06:03:38.414880","MEAN_MOTION":15.08834315,"ECCENTRICITY":0.00015197,"INCLINATION":53.2193,"RA_OF_ASC_NODE":22.6125,"ARG_OF_PERICENTER":86.6896,"MEAN_ANOMALY":273.427,"EPHEMERIS_TYPE":0,"CLASSIFICATION_TYPE":"U","NORAD_CAT_ID":52844,"ELEMENT_SET_NO":999,"REV_AT_EPOCH":20617,"BSTAR":-0.00016256982,"MEAN_MOTION_DOT":-2.874e-5,"MEAN_MOTION_DDOT":0},{"OBJECT_NAME":"STARLINK-4168","OBJECT_ID":"2022-062R","EPOCH":"2026-03-12T05:47:44.272896","MEAN_MOTION":15.08835282,"ECCENTRICITY":0.00015495,"INCLINATION":53.2201,"RA_OF_ASC_NODE":22.7305,"ARG_OF_PERICENTER":104.0709,"MEAN_ANOMALY":256.0455,"EPHEMERIS_TYPE":0,"CLASSIFICATION_TYPE":"U","NORAD_CAT_ID":52845,"ELEMENT_SET_NO":999,"REV_AT_EPOCH":20617,"BSTAR":-3.6392073e-5,"MEAN_MOTION_DOT":-8.67e-6,"MEAN_MOTION_DDOT":0},{"OBJECT_NAME":"STARLINK-4212","OBJECT_ID":"2022-062S","EPOCH":"2026-03-12T05:49:05.736000","MEAN_MOTION":15.08841304,"ECCENTRICITY":0.00013989,"INCLINATION":53.2191,"RA_OF_ASC_NODE":22.6694,"ARG_OF_PERICENTER":90.7699,"MEAN_ANOMALY":269.3454,"EPHEMERIS_TYPE":0,"CLASSIFICATION_TYPE":"U","NORAD_CAT_ID":52846,"ELEMENT_SET_NO":999,"REV_AT_EPOCH":20617,"BSTAR":8.5589039e-5,"MEAN_MOTION_DOT":1.075e-5,"MEAN_MOTION_DDOT":0},{"OBJECT_NAME":"STARLINK-4206","OBJECT_ID":"2022-062T","EPOCH":"2026-03-12T07:07:12.295776","MEAN_MOTION":15.08831655,"ECCENTRICITY":0.00013765,"INCLINATION":53.2185,"RA_OF_ASC_NODE":22.422,"ARG_OF_PERICENTER":95.0736,"MEAN_ANOMALY":265.0413,"EPHEMERIS_TYPE":0,"CLASSIFICATION_TYPE":"U","NORAD_CAT_ID":52847,"ELEMENT_SET_NO":999,"REV_AT_EPOCH":20618,"BSTAR":-8.3013096e-5,"MEAN_MOTION_DOT":-1.609e-5,"MEAN_MOTION_DDOT":0},{"OBJECT_NAME":"STARLINK-4202","OBJECT_ID":"2022-062U","EPOCH":"2026-03-12T04:22:55.699968","MEAN_MOTION":15.08843368,"ECCENTRICITY":0.0001165,"INCLINATION":53.2187,"RA_OF_ASC_NODE":22.9272,"ARG_OF_PERICENTER":86.0049,"MEAN_ANOMALY":274.1076,"EPHEMERIS_TYPE":0,"CLASSIFICATION_TYPE":"U","NORAD_CAT_ID":52848,"ELEMENT_SET_NO":999,"REV_AT_EPOCH":20616,"BSTAR":3.708155e-6,"MEAN_MOTION_DOT":-2.29e-6,"MEAN_MOTION_DDOT":0},{"OBJECT_NAME":"STARLINK-4197","OBJECT_ID":"2022-062V","EPOCH":"2026-03-12T03:47:09.846240","MEAN_MOTION":15.08843084,"ECCENTRICITY":0.00013655,"INCLINATION":53.2189,"RA_OF_ASC_NODE":13.0399,"ARG_OF_PERICENTER":79.9117,"MEAN_ANOMALY":280.2029,"EPHEMERIS_TYPE":0,"CLASSIFICATION_TYPE":"U","NORAD_CAT_ID":52849,"ELEMENT_SET_NO":999,"REV_AT_EPOCH":20629,"BSTAR":0.00010400968,"MEAN_MOTION_DOT":1.368e-5,"MEAN_MOTION_DDOT":0},{"OBJECT_NAME":"STARLINK-4187","OBJECT_ID":"2022-062W","EPOCH":"2026-03-12T03:15:28.711872","MEAN_MOTION":15.08841052,"ECCENTRICITY":0.00013315,"INCLINATION":53.2197,"RA_OF_ASC_NODE":23.4985,"ARG_OF_PERICENTER":87.055,"MEAN_ANOMALY":273.0595,"EPHEMERIS_TYPE":0,"CLASSIFICATION_TYPE":"U","NORAD_CAT_ID":52850,"ELEMENT_SET_NO":999,"REV_AT_EPOCH":20615,"BSTAR":2.3392083e-5,"MEAN_MOTION_DOT":8.4e-7,"MEAN_MOTION_DDOT":0},{"OBJECT_NAME":"STARLINK-3809","OBJECT_ID":"2022-062X","EPOCH":"2026-03-12T03:41:51.624672","MEAN_MOTION":15.08827654,"ECCENTRICITY":0.00013127,"INCLINATION":53.2195,"RA_OF_ASC_NODE":13.0567,"ARG_OF_PERICENTER":89.7076,"MEAN_ANOMALY":270.4066,"EPHEMERIS_TYPE":0,"CLASSIFICATION_TYPE":"U","NORAD_CAT_ID":52851,"ELEMENT_SET_NO":999,"REV_AT_EPOCH":20629,"BSTAR":0.00017313576,"MEAN_MOTION_DOT":2.468e-5,"MEAN_MOTION_DDOT":0},{"OBJECT_NAME":"STARLINK-4184","OBJECT_ID":"2022-062Y","EPOCH":"2026-03-12T05:27:50.891904","MEAN_MOTION":15.08840706,"ECCENTRICITY":0.00015277,"INCLINATION":53.22,"RA_OF_ASC_NODE":12.7268,"ARG_OF_PERICENTER":85.5953,"MEAN_ANOMALY":274.5213,"EPHEMERIS_TYPE":0,"CLASSIFICATION_TYPE":"U","NORAD_CAT_ID":52852,"ELEMENT_SET_NO":999,"REV_AT_EPOCH":20630,"BSTAR":2.5336525e-5,"MEAN_MOTION_DOT":1.15e-6,"MEAN_MOTION_DDOT":0},{"OBJECT_NAME":"STARLINK-4189","OBJECT_ID":"2022-062Z","EPOCH":"2026-03-12T06:38:06.142272","MEAN_MOTION":15.08846201,"ECCENTRICITY":0.00013327,"INCLINATION":53.2184,"RA_OF_ASC_NODE":12.4812,"ARG_OF_PERICENTER":85.2575,"MEAN_ANOMALY":274.8569,"EPHEMERIS_TYPE":0,"CLASSIFICATION_TYPE":"U","NORAD_CAT_ID":52853,"ELEMENT_SET_NO":999,"REV_AT_EPOCH":20631,"BSTAR":9.9410946e-5,"MEAN_MOTION_DOT":1.295e-5,"MEAN_MOTION_DDOT":0},{"OBJECT_NAME":"STARLINK-4204","OBJECT_ID":"2022-062AA","EPOCH":"2026-03-12T05:11:57.420384","MEAN_MOTION":15.0883671,"ECCENTRICITY":0.00013417,"INCLINATION":53.2191,"RA_OF_ASC_NODE":12.7748,"ARG_OF_PERICENTER":91.1242,"MEAN_ANOMALY":268.9904,"EPHEMERIS_TYPE":0,"CLASSIFICATION_TYPE":"U","NORAD_CAT_ID":52854,"ELEMENT_SET_NO":999,"REV_AT_EPOCH":20630,"BSTAR":6.3633635e-5,"MEAN_MOTION_DOT":7.25e-6,"MEAN_MOTION_DDOT":0},{"OBJECT_NAME":"STARLINK-4209","OBJECT_ID":"2022-062AB","EPOCH":"2026-03-12T03:20:40.396416","MEAN_MOTION":15.08832491,"ECCENTRICITY":0.00016254,"INCLINATION":53.2202,"RA_OF_ASC_NODE":13.1296,"ARG_OF_PERICENTER":99.5979,"MEAN_ANOMALY":260.5197,"EPHEMERIS_TYPE":0,"CLASSIFICATION_TYPE":"U","NORAD_CAT_ID":52855,"ELEMENT_SET_NO":999,"REV_AT_EPOCH":20629,"BSTAR":3.6920481e-5,"MEAN_MOTION_DOT":3.0e-6,"MEAN_MOTION_DDOT":0},{"OBJECT_NAME":"STARLINK-4201","OBJECT_ID":"2022-062AC","EPOCH":"2026-03-12T05:08:02.424480","MEAN_MOTION":15.0883739,"ECCENTRICITY":0.00012863,"INCLINATION":53.2183,"RA_OF_ASC_NODE":12.8344,"ARG_OF_PERICENTER":90.1932,"MEAN_ANOMALY":269.9208,"EPHEMERIS_TYPE":0,"CLASSIFICATION_TYPE":"U","NORAD_CAT_ID":52856,"ELEMENT_SET_NO":999,"REV_AT_EPOCH":20630,"BSTAR":7.6946252e-5,"MEAN_MOTION_DOT":9.37e-6,"MEAN_MOTION_DDOT":0},{"OBJECT_NAME":"STARLINK-4199","OBJECT_ID":"2022-062AD","EPOCH":"2026-03-12T03:10:04.577088","MEAN_MOTION":15.0883163,"ECCENTRICITY":0.00015638,"INCLINATION":53.2202,"RA_OF_ASC_NODE":13.1595,"ARG_OF_PERICENTER":97.8852,"MEAN_ANOMALY":262.2318,"EPHEMERIS_TYPE":0,"CLASSIFICATION_TYPE":"U","NORAD_CAT_ID":52857,"ELEMENT_SET_NO":999,"REV_AT_EPOCH":20629,"BSTAR":-4.3357254e-5,"MEAN_MOTION_DOT":-9.78e-6,"MEAN_MOTION_DDOT":0}]
